[{"OBJECT_NAME":"LEMUR-2-ANDIS","OBJECT_ID":"2017-042P","EPOCH":"2026-03-09T13:25:33.116448","MEAN_MOTION":15.30557934,"ECCENTRICITY":0.0009101,"INCLINATION":97.3659,"RA_OF_ASC_NODE":249.795,"ARG_OF_PERICENTER":4.3248,"MEAN_ANOMALY":355.807,"EPHEMERIS_TYPE":0,"CLASSIFICATION_TYPE":"U","NORAD_CAT_ID":42838,"ELEMENT_SET_NO":999,"REV_AT_EPOCH":47319,"BSTAR":0.00079875,"MEAN_MOTION_DOT":0.00023598,"MEAN_MOTION_DDOT":0},{"OBJECT_NAME":"STARLINK-35742","OBJECT_ID":"2025-247M","EPOCH":"2026-03-09T14:58:48.835776","MEAN_MOTION":15.30189377,"ECCENTRICITY":0.0001058,"INCLINATION":53.1577,"RA_OF_ASC_NODE":191.7465,"ARG_OF_PERICENTER":61.117,"MEAN_ANOMALY":298.9937,"EPHEMERIS_TYPE":0,"CLASSIFICATION_TYPE":"U","NORAD_CAT_ID":66276,"ELEMENT_SET_NO":999,"REV_AT_EPOCH":2107,"BSTAR":0.0015947,"MEAN_MOTION_DOT":0.00047156,"MEAN_MOTION_DDOT":0}]
